{
"type": "FeatureCollection",
"name": "Crane_ice_extent",
"crs": { "type": "name", "properties": { "name": "urn:ogc:def:crs:OGC:1.3:CRS84" } },
"features": [
{ "type": "Feature", "properties": { "name": "Crane", "tags": "Crane", "object": "region", "component": "landice", "author": "https://nsidc.org/data/nsidc-0709/versions/2" }, "geometry": { "type": "Polygon", "coordinates": [ [ [ -62.711133639719051, -65.201690711497164 ], [ -62.670350055324924, -65.222528990830611 ], [ -62.603459729541953, -65.24258053585163 ], [ -62.572933915847166, -65.263459838061763 ], [ -62.5447479615612, -65.280135328845873 ], [ -62.526497752286581, -65.28953644693901 ], [ -62.505122164004312, -65.302192318858701 ], [ -62.485513843643858, -65.307365058584409 ], [ -62.456050254898265, -65.306845472030275 ], [ -62.416719886631014, -65.301407479921991 ], [ -62.325208704931725, -65.295492600965332 ], [ -62.335693172886117, -65.281896177745423 ], [ -62.317445266252619, -65.267199412520014 ], [ -62.298527185097861, -65.256186534513603 ], [ -62.270881390790265, -65.25997099550564 ], [ -62.243281563118522, -65.273087823873126 ], [ -62.224460224612059, -65.281283149356227 ], [ -62.207546873139194, -65.287430270160783 ], [ -62.190867321049865, -65.293903404053154 ], [ -62.156665341547331, -65.292936788753494 ], [ -62.098387196049593, -65.288693547437163 ], [ -62.117121946034828, -65.294976512128969 ], [ -62.128540197698982, -65.299256398890066 ], [ -62.140533416482363, -65.301670100153444 ], [ -62.147349654468975, -65.303274515515 ], [ -62.156291323654308, -65.311206517647378 ], [ -62.163824913580754, -65.312631350161041 ], [ -62.165895127033366, -65.315363341001913 ], [ -62.164445556775057, -65.316107929936919 ], [ -62.164473056313966, -65.322235615948529 ], [ -62.162690811765337, -65.328310884682921 ], [ -62.155680841457574, -65.332535433129124 ], [ -62.154079052389207, -65.334794284133437 ], [ -62.147657147667211, -65.338694146240357 ], [ -62.149659744959877, -65.340729476981622 ], [ -62.135522721129533, -65.349639438100937 ], [ -62.117967830734798, -65.35325327213809 ], [ -62.077136087381596, -65.380590210127579 ], [ -62.077136087381596, -65.380590210127579 ], [ -62.145699215470813, -65.37281847099797 ], [ -62.167281294498281, -65.375205553640612 ], [ -62.222861066440238, -65.371647482909509 ], [ -62.291680881779712, -65.372550024011119 ], [ -62.345048311349345, -65.367675194569458 ], [ -62.390573553751061, -65.370527255810231 ], [ -62.461664445041194, -65.389161881004156 ], [ -62.514312160790922, -65.402953390636469 ], [ -62.56636193602624, -65.414222755332844 ], [ -62.659506325283054, -65.431956710379211 ], [ -62.737637116748708, -65.454237931998406 ], [ -62.805918071586682, -65.482698633184484 ], [ -62.811183455537751, -65.484889234346454 ], [ -62.867708260649586, -65.511061365188553 ], [ -62.885804488291811, -65.542376342805909 ], [ -62.886691630407086, -65.569250665285679 ], [ -62.890670180308163, -65.576005754891213 ], [ -62.89831926564306, -65.58898230709994 ], [ -62.900773458184162, -65.589992247734372 ], [ -62.929764097326832, -65.601912856044947 ], [ -63.002567564209123, -65.629035378321703 ], [ -63.126602388643924, -65.631554288837847 ], [ -63.236318220802865, -65.630192178132134 ], [ -63.303819000409725, -65.599646937652949 ], [ -63.34925965578536, -65.569997824340263 ], [ -63.365154289162966, -65.553759665787169 ], [ -63.385548345064301, -65.537678541826864 ], [ -63.388604133476498, -65.516436113568759 ], [ -63.322626984854296, -65.457362380393931 ], [ -63.293553165044756, -65.420795970865285 ], [ -63.263005675425205, -65.393281566590773 ], [ -63.22118042805085, -65.379796313503476 ], [ -63.189035571735126, -65.375371224505457 ], [ -63.092184036117075, -65.343941847843908 ], [ -63.057623964387204, -65.307638195868492 ], [ -62.98940255786006, -65.283710009963158 ], [ -62.912046122160845, -65.275008725258829 ], [ -62.889459667642733, -65.25213604170429 ], [ -62.861455853629565, -65.239849619201095 ], [ -62.848620556551481, -65.217279444060836 ], [ -62.711133639719051, -65.201690711497164 ] ] ] } }
]
}
